[{"OBJECT_NAME":"STARLINK-34165","OBJECT_ID":"2025-101D","EPOCH":"2025-12-10T03:24:20.446848","MEAN_MOTION":15.276059,"ECCENTRICITY":6.518e-5,"INCLINATION":42.9985,"RA_OF_ASC_NODE":143.3738,"ARG_OF_PERICENTER":284.1991,"MEAN_ANOMALY":75.8788,"EPHEMERIS_TYPE":0,"CLASSIFICATION_TYPE":"U","NORAD_CAT_ID":63997,"ELEMENT_SET_NO":999,"REV_AT_EPOCH":3336,"BSTAR":0.00079172656,"MEAN_MOTION_DOT":0.00021606,"MEAN_MOTION_DDOT":0},{"OBJECT_NAME":"STARLINK-34150","OBJECT_ID":"2025-101E","EPOCH":"2025-12-09T20:30:55.387872","MEAN_MOTION":15.27606242,"ECCENTRICITY":0.0001584,"INCLINATION":43.0021,"RA_OF_ASC_NODE":145.526,"ARG_OF_PERICENTER":274.8874,"MEAN_ANOMALY":85.1796,"EPHEMERIS_TYPE":0,"CLASSIFICATION_TYPE":"U","NORAD_CAT_ID":63998,"ELEMENT_SET_NO":999,"REV_AT_EPOCH":3331,"BSTAR":0.0018750037,"MEAN_MOTION_DOT":0.00051738,"MEAN_MOTION_DDOT":0},{"OBJECT_NAME":"STARLINK-34169","OBJECT_ID":"2025-101F","EPOCH":"2025-12-09T11:57:34.641504","MEAN_MOTION":15.27599953,"ECCENTRICITY":0.00010106,"INCLINATION":42.9999,"RA_OF_ASC_NODE":147.1457,"ARG_OF_PERICENTER":270.5214,"MEAN_ANOMALY":89.5522,"EPHEMERIS_TYPE":0,"CLASSIFICATION_TYPE":"U","NORAD_CAT_ID":63999,"ELEMENT_SET_NO":999,"REV_AT_EPOCH":3326,"BSTAR":0.0011393451,"MEAN_MOTION_DOT":0.00031242,"MEAN_MOTION_DDOT":0},{"OBJECT_NAME":"STARLINK-34152","OBJECT_ID":"2025-101G","EPOCH":"2025-12-10T03:48:23.624064","MEAN_MOTION":15.2758604,"ECCENTRICITY":0.00010191,"INCLINATION":43.0015,"RA_OF_ASC_NODE":143.5011,"ARG_OF_PERICENTER":282.6635,"MEAN_ANOMALY":77.4103,"EPHEMERIS_TYPE":0,"CLASSIFICATION_TYPE":"U","NORAD_CAT_ID":64000,"ELEMENT_SET_NO":999,"REV_AT_EPOCH":3336,"BSTAR":0.0010605651,"MEAN_MOTION_DOT":0.00029043,"MEAN_MOTION_DDOT":0},{"OBJECT_NAME":"STARLINK-33927","OBJECT_ID":"2025-101H","EPOCH":"2025-12-09T17:46:39.838368","MEAN_MOTION":15.27587708,"ECCENTRICITY":0.00022904,"INCLINATION":43.0027,"RA_OF_ASC_NODE":146.3886,"ARG_OF_PERICENTER":278.0227,"MEAN_ANOMALY":82.0365,"EPHEMERIS_TYPE":0,"CLASSIFICATION_TYPE":"U","NORAD_CAT_ID":64001,"ELEMENT_SET_NO":999,"REV_AT_EPOCH":3329,"BSTAR":0.0011186664,"MEAN_MOTION_DOT":0.00030657,"MEAN_MOTION_DDOT":0},{"OBJECT_NAME":"STARLINK-33898","OBJECT_ID":"2025-101J","EPOCH":"2025-12-09T19:09:42.538464","MEAN_MOTION":15.27603078,"ECCENTRICITY":0.00015375,"INCLINATION":43.0004,"RA_OF_ASC_NODE":145.9576,"ARG_OF_PERICENTER":271.5836,"MEAN_ANOMALY":88.484,"EPHEMERIS_TYPE":0,"CLASSIFICATION_TYPE":"U","NORAD_CAT_ID":64002,"ELEMENT_SET_NO":999,"REV_AT_EPOCH":3330,"BSTAR":0.00080592534,"MEAN_MOTION_DOT":0.00021997,"MEAN_MOTION_DDOT":0},{"OBJECT_NAME":"STARLINK-33928","OBJECT_ID":"2025-101K","EPOCH":"2025-12-09T19:26:08.883456","MEAN_MOTION":15.2760583,"ECCENTRICITY":0.0001631,"INCLINATION":42.9987,"RA_OF_ASC_NODE":145.1796,"ARG_OF_PERICENTER":271.7975,"MEAN_ANOMALY":88.269,"EPHEMERIS_TYPE":0,"CLASSIFICATION_TYPE":"U","NORAD_CAT_ID":64003,"ELEMENT_SET_NO":999,"REV_AT_EPOCH":3331,"BSTAR":0.000865519,"MEAN_MOTION_DOT":0.0002365,"MEAN_MOTION_DDOT":0},{"OBJECT_NAME":"STARLINK-33758","OBJECT_ID":"2025-101L","EPOCH":"2025-12-10T04:08:46.509792","MEAN_MOTION":15.27583815,"ECCENTRICITY":0.00022011,"INCLINATION":43.0018,"RA_OF_ASC_NODE":143.6094,"ARG_OF_PERICENTER":287.1462,"MEAN_ANOMALY":72.9148,"EPHEMERIS_TYPE":0,"CLASSIFICATION_TYPE":"U","NORAD_CAT_ID":64004,"ELEMENT_SET_NO":999,"REV_AT_EPOCH":3336,"BSTAR":0.0011041046,"MEAN_MOTION_DOT":0.00030249,"MEAN_MOTION_DDOT":0},{"OBJECT_NAME":"STARLINK-33936","OBJECT_ID":"2025-101M","EPOCH":"2025-12-09T19:53:56.442336","MEAN_MOTION":15.27581822,"ECCENTRICITY":0.00011046,"INCLINATION":42.9973,"RA_OF_ASC_NODE":145.3268,"ARG_OF_PERICENTER":242.3069,"MEAN_ANOMALY":117.767,"EPHEMERIS_TYPE":0,"CLASSIFICATION_TYPE":"U","NORAD_CAT_ID":64005,"ELEMENT_SET_NO":999,"REV_AT_EPOCH":3331,"BSTAR":0.0015055153,"MEAN_MOTION_DOT":0.00041402,"MEAN_MOTION_DDOT":0},{"OBJECT_NAME":"STARLINK-33931","OBJECT_ID":"2025-101N","EPOCH":"2025-12-10T03:18:46.401120","MEAN_MOTION":15.27619023,"ECCENTRICITY":0.00031367,"INCLINATION":43.0008,"RA_OF_ASC_NODE":143.3414,"ARG_OF_PERICENTER":279.27,"MEAN_ANOMALY":80.7797,"EPHEMERIS_TYPE":0,"CLASSIFICATION_TYPE":"U","NORAD_CAT_ID":64006,"ELEMENT_SET_NO":999,"REV_AT_EPOCH":3338,"BSTAR":0.001284867,"MEAN_MOTION_DOT":0.00035309,"MEAN_MOTION_DDOT":0},{"OBJECT_NAME":"STARLINK-33759","OBJECT_ID":"2025-101P","EPOCH":"2025-12-10T03:33:33.863040","MEAN_MOTION":15.27628012,"ECCENTRICITY":0.00021412,"INCLINATION":42.9989,"RA_OF_ASC_NODE":143.4177,"ARG_OF_PERICENTER":279.4168,"MEAN_ANOMALY":80.6442,"EPHEMERIS_TYPE":0,"CLASSIFICATION_TYPE":"U","NORAD_CAT_ID":64007,"ELEMENT_SET_NO":999,"REV_AT_EPOCH":3336,"BSTAR":0.0012165886,"MEAN_MOTION_DOT":0.00033418,"MEAN_MOTION_DDOT":0},{"OBJECT_NAME":"STARLINK-34163","OBJECT_ID":"2025-101Q","EPOCH":"2025-12-10T04:16:08.498496","MEAN_MOTION":15.2761109,"ECCENTRICITY":0.00015746,"INCLINATION":43.0027,"RA_OF_ASC_NODE":143.6453,"ARG_OF_PERICENTER":276.0864,"MEAN_ANOMALY":83.9808,"EPHEMERIS_TYPE":0,"CLASSIFICATION_TYPE":"U","NORAD_CAT_ID":64008,"ELEMENT_SET_NO":999,"REV_AT_EPOCH":3336,"BSTAR":0.0012517327,"MEAN_MOTION_DOT":0.00034376,"MEAN_MOTION_DDOT":0},{"OBJECT_NAME":"STARLINK-34077","OBJECT_ID":"2025-101R","EPOCH":"2025-12-10T03:31:43.800672","MEAN_MOTION":15.27609964,"ECCENTRICITY":0.00010182,"INCLINATION":42.9983,"RA_OF_ASC_NODE":143.4065,"ARG_OF_PERICENTER":274.7613,"MEAN_ANOMALY":85.3122,"EPHEMERIS_TYPE":0,"CLASSIFICATION_TYPE":"U","NORAD_CAT_ID":64009,"ELEMENT_SET_NO":999,"REV_AT_EPOCH":3336,"BSTAR":0.0010943406,"MEAN_MOTION_DOT":0.00030002,"MEAN_MOTION_DDOT":0},{"OBJECT_NAME":"STARLINK-34113","OBJECT_ID":"2025-101S","EPOCH":"2025-12-09T19:02:18.359520","MEAN_MOTION":15.27607169,"ECCENTRICITY":0.00016841,"INCLINATION":43.001,"RA_OF_ASC_NODE":145.9164,"ARG_OF_PERICENTER":271.0223,"MEAN_ANOMALY":89.0436,"EPHEMERIS_TYPE":0,"CLASSIFICATION_TYPE":"U","NORAD_CAT_ID":64010,"ELEMENT_SET_NO":999,"REV_AT_EPOCH":3330,"BSTAR":0.001755494,"MEAN_MOTION_DOT":0.00048403,"MEAN_MOTION_DDOT":0},{"OBJECT_NAME":"STARLINK-34193","OBJECT_ID":"2025-101T","EPOCH":"2025-12-09T19:00:27.249120","MEAN_MOTION":15.27603943,"ECCENTRICITY":0.00017666,"INCLINATION":43.0034,"RA_OF_ASC_NODE":145.9052,"ARG_OF_PERICENTER":270.2747,"MEAN_ANOMALY":89.7903,"EPHEMERIS_TYPE":0,"CLASSIFICATION_TYPE":"U","NORAD_CAT_ID":64011,"ELEMENT_SET_NO":999,"REV_AT_EPOCH":3330,"BSTAR":0.0011597824,"MEAN_MOTION_DOT":0.00031814,"MEAN_MOTION_DDOT":0},{"OBJECT_NAME":"STARLINK-34078","OBJECT_ID":"2025-101U","EPOCH":"2025-12-10T03:28:01.963488","MEAN_MOTION":15.27595187,"ECCENTRICITY":0.00023264,"INCLINATION":42.999,"RA_OF_ASC_NODE":143.386,"ARG_OF_PERICENTER":278.1212,"MEAN_ANOMALY":81.9376,"EPHEMERIS_TYPE":0,"CLASSIFICATION_TYPE":"U","NORAD_CAT_ID":64012,"ELEMENT_SET_NO":999,"REV_AT_EPOCH":3336,"BSTAR":0.0017287416,"MEAN_MOTION_DOT":0.00047641,"MEAN_MOTION_DDOT":0}]
