STARLINK-34165          
1 63997U 25101D   25344.14190332  .00021606  00000+0  79173-3 0  9998
2 63997  42.9985 143.3738 0000651 284.1991  75.8788 15.27605900 33361
STARLINK-34150          
1 63998U 25101E   25343.85480773  .00051738  00000+0  18750-2 0  9999
2 63998  43.0021 145.5260 0001584 274.8874  85.1796 15.27606242 33319
STARLINK-34169          
1 63999U 25101F   25343.49831761  .00031242  00000+0  11393-2 0  9991
2 63999  42.9999 147.1457 0001010 270.5214  89.5522 15.27599953 33262
STARLINK-34152          
1 64000U 25101G   25344.15860676  .00029043  00000+0  10606-2 0  9998
2 64000  43.0015 143.5011 0001019 282.6635  77.4103 15.27586040 33368
STARLINK-33927          
1 64001U 25101H   25343.74073887  .00030657  00000+0  11187-2 0  9991
2 64001  43.0027 146.3886 0002290 278.0227  82.0365 15.27587708 33297
STARLINK-33898          
1 64002U 25101J   25343.79840901  .00021997  00000+0  80593-3 0  9991
2 64002  43.0004 145.9576 0001537 271.5836  88.4840 15.27603078 33300
STARLINK-33928          
1 64003U 25101K   25343.80982504  .00023650  00000+0  86552-3 0  9999
2 64003  42.9987 145.1796 0001631 271.7975  88.2690 15.27605830 33316
STARLINK-33758          
1 64004U 25101L   25344.17276053  .00030249  00000+0  11041-2 0  9998
2 64004  43.0018 143.6094 0002201 287.1462  72.9148 15.27583815 33365
STARLINK-33936          
1 64005U 25101M   25343.82912549  .00041402  00000+0  15055-2 0  9999
2 64005  42.9973 145.3268 0001104 242.3069 117.7670 15.27581822 33312
STARLINK-33931          
1 64006U 25101N   25344.13803705  .00035309  00000+0  12849-2 0  9995
2 64006  43.0008 143.3414 0003136 279.2700  80.7797 15.27619023 33384
STARLINK-33759          
1 64007U 25101P   25344.14830860  .00033418  00000+0  12166-2 0  9990
2 64007  42.9989 143.4177 0002141 279.4168  80.6442 15.27628012 33365
STARLINK-34163          
1 64008U 25101Q   25344.17787614  .00034376  00000+0  12517-2 0  9996
2 64008  43.0027 143.6453 0001574 276.0864  83.9808 15.27611090 33365
STARLINK-34077          
1 64009U 25101R   25344.14703473  .00030002  00000+0  10943-2 0  9998
2 64009  42.9983 143.4065 0001018 274.7613  85.3122 15.27609964 33364
STARLINK-34113          
1 64010U 25101S   25343.79326805  .00048403  00000+0  17555-2 0  9990
2 64010  43.0010 145.9164 0001684 271.0223  89.0436 15.27607169 33300
STARLINK-34193          
1 64011U 25101T   25343.79198205  .00031814  00000+0  11598-2 0  9991
2 64011  43.0034 145.9052 0001766 270.2747  89.7903 15.27603943 33308
STARLINK-34078          
1 64012U 25101U   25344.14446717  .00047641  00000+0  17287-2 0  9992
2 64012  42.9990 143.3860 0002326 278.1212  81.9376 15.27595187 33368
